GLOBALSTAR M075         
1 37192U 10054E   24250.20215087 -.00000063  00000+0  22810-3 0  9995
2 37192  51.9969 326.2131 0000517  99.3078 285.9583 12.62264070640516
GLOBALSTAR M073         
1 37193U 10054F   24249.18499510 -.00000102  00000+0  78249-5 0  9999
2 37193  52.0036 242.9099 0000422  83.0898 357.5090 12.62269197641847
GLOBALSTAR M083         
1 37739U 11033A   24249.21074205 -.00000090  00000+0  76340-4 0  9992
2 37739  51.9845 191.9497 0000475  34.9809 103.7672 12.62263757610860
GLOBALSTAR M088         
1 37740U 11033B   24249.88890830 -.00000071  00000+0  18313-3 0  9991
2 37740  51.9726  95.6144 0000797  62.3016  40.4186 12.62267212606492
GLOBALSTAR M091         
1 37741U 11033C   24249.65992639 -.00000093  00000+0  58396-4 0  9997
2 37741  52.0005  59.3597 0000703  62.8308  16.9642 12.62266618607259
GLOBALSTAR M085         
1 37742U 11033D   24249.65147924 -.00000086  00000+0  97739-4 0  9993
2 37742  51.9900  10.6747 0000577  80.0742  22.6584 12.62265120607764
GLOBALSTAR M081         
1 37743U 11033E   24249.67839123 -.00000098  00000+0  32412-4 0  9995
2 37743  51.9985  13.2039 0000824  76.6282  28.2940 12.62268665607918
GLOBALSTAR M089         
1 37744U 11033F   24249.22409556 -.00000058  00000+0  25295-3 0  9996
2 37744  51.9948 328.8737 0000894 110.4870 267.4295 12.62268003608709
